{"type": "FeatureCollection", "features": [ {"type": "Feature", "properties": {"norad_id": 30915, "name": "FENGYUN 1C DEB", "group": "fengyun-1c-debris", "lat": 79.10963909123741, "lon": 3.7520630217139095, "alt_km": 804.8429690357852, "timestamp": "2025-12-08T13:49:32.072194+00:00", "meta": {"OBJECT_NAME": "FENGYUN 1C DEB", "OBJECT_ID": "1999-025AZD", "EPOCH": "2025-12-07T15:31:25.559904", "MEAN_MOTION": 14.24983759, "ECCENTRICITY": 0.00538384, "INCLINATION": 98.942, "RA_OF_ASC_NODE": 57.7262, "ARG_OF_PERICENTER": 182.2784, "MEAN_ANOMALY": 177.8157, "EPHEMERIS_TYPE": 0, "CLASSIFICATION_TYPE": "U", "NORAD_CAT_ID": 30915, "ELEMENT_SET_NO": 999, "REV_AT_EPOCH": 96440, "BSTAR": 0.0027821003, "MEAN_MOTION_DOT": 6.568e-05, "MEAN_MOTION_DDOT": 0}, "tle": {"line1": "1 30915U 99025AZD 25341.64682361  .00006568  00000+0  27821-2 0  9990", "line2": "2 30915  98.9420  57.7262 0053838 182.2784 177.8157 14.24983759964401"}}, "geometry": {"type": "Point", "coordinates": [3.7520630217139095, 79.10963909123741]}}, {"type": "Feature", "properties": {"norad_id": 30916, "name": "FENGYUN 1C DEB", "group": "fengyun-1c-debris", "lat": 13.232981317360261, "lon": 40.789821207290146, "alt_km": 874.8450856759509, "timestamp": "2025-12-08T13:49:32.072205+00:00", "meta": {"OBJECT_NAME": "FENGYUN 1C DEB", "OBJECT_ID": "1999-025AZE", "EPOCH": "2025-12-08T03:39:40.753728", "MEAN_MOTION": 14.08769157, "ECCENTRICITY": 0.00624943, "INCLINATION": 99.0022, "RA_OF_ASC_NODE": 42.5034, "ARG_OF_PERICENTER": 271.2644, "MEAN_ANOMALY": 114.8726, "EPHEMERIS_TYPE": 0, "CLASSIFICATION_TYPE": "U", "NORAD_CAT_ID": 30916, "ELEMENT_SET_NO": 999, "REV_AT_EPOCH": 95779, "BSTAR": 0.0015590716, "MEAN_MOTION_DOT": 2.693e-05, "MEAN_MOTION_DDOT": 0}, "tle": {"line1": "1 30916U 99025AZE 25342.15255502  .00002693  00000+0  15591-2 0  9997", "line2": "2 30916  99.0022  42.5034 0062494 271.2644 114.8726 14.08769157957796"}}, "geometry": {"type": "Point", "coordinates": [40.789821207290146, 13.232981317360261]}}, {"type": "Feature", "properties": {"norad_id": 30918, "name": "FENGYUN 1C DEB", "group": "fengyun-1c-debris", "lat": -78.79644164773056, "lon": 143.50634575126475, "alt_km": 1000.5200141991872, "timestamp": "2025-12-08T13:49:32.072215+00:00", "meta": {"OBJECT_NAME": "FENGYUN 1C DEB", "OBJECT_ID": "1999-025AZG", "EPOCH": "2025-12-04T19:44:20.227776", "MEAN_MOTION": 13.96769696, "ECCENTRICITY": 0.0158492, "INCLINATION": 98.4163, "RA_OF_ASC_NODE": 91.6979, "ARG_OF_PERICENTER": 147.4427, "MEAN_ANOMALY": 344.5797, "EPHEMERIS_TYPE": 0, "CLASSIFICATION_TYPE": "U", "NORAD_CAT_ID": 30918, "ELEMENT_SET_NO": 999, "REV_AT_EPOCH": 94942, "BSTAR": 0.0025721918, "MEAN_MOTION_DOT": 3.935e-05, "MEAN_MOTION_DDOT": 0}, "tle": {"line1": "1 30918U 99025AZG 25338.82245634  .00003935  00000+0  25722-2 0  9990", "line2": "2 30918  98.4163  91.6979 0158492 147.4427 344.5797 13.96769696949422"}}, "geometry": {"type": "Point", "coordinates": [143.50634575126475, -78.79644164773056]}}, {"type": "Feature", "properties": {"norad_id": 30920, "name": "FENGYUN 1C DEB", "group": "fengyun-1c-debris", "lat": -64.01140802942267, "lon": -74.93287858061998, "alt_km": 900.2583049522627, "timestamp": "2025-12-08T13:49:32.072225+00:00", "meta": {"OBJECT_NAME": "FENGYUN 1C DEB", "OBJECT_ID": "1999-025AZJ", "EPOCH": "2025-12-08T02:30:31.504320", "MEAN_MOTION": 14.16518486, "ECCENTRICITY": 0.01105074, "INCLINATION": 98.9196, "RA_OF_ASC_NODE": 123.3879, "ARG_OF_PERICENTER": 111.7474, "MEAN_ANOMALY": 249.5505, "EPHEMERIS_TYPE": 0, "CLASSIFICATION_TYPE": "U", "NORAD_CAT_ID": 30920, "ELEMENT_SET_NO": 999, "REV_AT_EPOCH": 95028, "BSTAR": 0.0053183812, "MEAN_MOTION_DOT": 0.00011215, "MEAN_MOTION_DDOT": 0}, "tle": {"line1": "1 30920U 99025AZJ 25342.10453130  .00011215  00000+0  53184-2 0  9994", "line2": "2 30920  98.9196 123.3879 0110507 111.7474 249.5505 14.16518486950288"}}, "geometry": {"type": "Point", "coordinates": [-74.93287858061998, -64.01140802942267]}}, {"type": "Feature", "properties": {"norad_id": 30921, "name": "FENGYUN 1C DEB", "group": "fengyun-1c-debris", "lat": -68.14596411180938, "lon": -132.8689197071351, "alt_km": 801.6233236555381, "timestamp": "2025-12-08T13:49:32.072235+00:00", "meta": {"OBJECT_NAME": "FENGYUN 1C DEB", "OBJECT_ID": "1999-025AZK", "EPOCH": "2025-12-08T04:33:00.892224", "MEAN_MOTION": 14.32669043, "ECCENTRICITY": 0.00171115, "INCLINATION": 98.8429, "RA_OF_ASC_NODE": 69.5766, "ARG_OF_PERICENTER": 52.0501, "MEAN_ANOMALY": 5.7634, "EPHEMERIS_TYPE": 0, "CLASSIFICATION_TYPE": "U", "NORAD_CAT_ID": 30921, "ELEMENT_SET_NO": 999, "REV_AT_EPOCH": 96759, "BSTAR": 0.0023427679, "MEAN_MOTION_DOT": 6.34e-05, "MEAN_MOTION_DDOT": 0}, "tle": {"line1": "1 30921U 99025AZK 25342.18959366  .00006340  00000+0  23428-2 0  9996", "line2": "2 30921  98.8429  69.5766 0017111  52.0501   5.7634 14.32669043967599"}}, "geometry": {"type": "Point", "coordinates": [-132.8689197071351, -68.14596411180938]}}, {"type": "Feature", "properties": {"norad_id": 30922, "name": "FENGYUN 1C DEB", "group": "fengyun-1c-debris", "lat": 62.538258168189394, "lon": -18.475191812265006, "alt_km": 817.2660482069587, "timestamp": "2025-12-08T13:49:32.072245+00:00", "meta": {"OBJECT_NAME": "FENGYUN 1C DEB", "OBJECT_ID": "1999-025AZL", "EPOCH": "2025-12-08T00:16:25.924224", "MEAN_MOTION": 14.1744053, "ECCENTRICITY": 0.00147309, "INCLINATION": 98.6405, "RA_OF_ASC_NODE": 357.9879, "ARG_OF_PERICENTER": 66.7283, "MEAN_ANOMALY": 357.4659, "EPHEMERIS_TYPE": 0, "CLASSIFICATION_TYPE": "U", "NORAD_CAT_ID": 30922, "ELEMENT_SET_NO": 999, "REV_AT_EPOCH": 96497, "BSTAR": 0.00095311714, "MEAN_MOTION_DOT": 1.891e-05, "MEAN_MOTION_DDOT": 0}, "tle": {"line1": "1 30922U 99025AZL 25342.01141116  .00001891  00000+0  95312-3 0  9993", "line2": "2 30922  98.6405 357.9879 0014730  66.7283 357.4659 14.17440530964978"}}, "geometry": {"type": "Point", "coordinates": [-18.475191812265006, 62.538258168189394]}}, {"type": "Feature", "properties": {"norad_id": 30925, "name": "FENGYUN 1C DEB", "group": "fengyun-1c-debris", "lat": 13.653460201598929, "lon": -63.640239467715936, "alt_km": 746.8848181505873, "timestamp": "2025-12-08T13:49:32.072256+00:00", "meta": {"OBJECT_NAME": "FENGYUN 1C DEB", "OBJECT_ID": "1999-025AZP", "EPOCH": "2025-12-08T03:53:42.156672", "MEAN_MOTION": 14.43004917, "ECCENTRICITY": 0.00331991, "INCLINATION": 98.884, "RA_OF_ASC_NODE": 113.7512, "ARG_OF_PERICENTER": 250.9904, "MEAN_ANOMALY": 287.2057, "EPHEMERIS_TYPE": 0, "CLASSIFICATION_TYPE": "U", "NORAD_CAT_ID": 30925, "ELEMENT_SET_NO": 999, "REV_AT_EPOCH": 97006, "BSTAR": 0.003158275, "MEAN_MOTION_DOT": 0.00010615, "MEAN_MOTION_DDOT": 0}, "tle": {"line1": "1 30925U 99025AZP 25342.16229348  .00010615  00000+0  31583-2 0  9999", "line2": "2 30925  98.8840 113.7512 0033199 250.9904 287.2057 14.43004917970068"}}, "geometry": {"type": "Point", "coordinates": [-63.640239467715936, 13.653460201598929]}}, {"type": "Feature", "properties": {"norad_id": 30926, "name": "FENGYUN 1C DEB", "group": "fengyun-1c-debris", "lat": -19.11467674768576, "lon": -74.07291341317045, "alt_km": 536.4212097730888, "timestamp": "2025-12-08T13:49:32.072266+00:00", "meta": {"OBJECT_NAME": "FENGYUN 1C DEB", "OBJECT_ID": "1999-025AZQ", "EPOCH": "2025-12-08T02:37:22.328544", "MEAN_MOTION": 14.89254713, "ECCENTRICITY": 0.01662325, "INCLINATION": 98.8019, "RA_OF_ASC_NODE": 282.3299, "ARG_OF_PERICENTER": 36.5822, "MEAN_ANOMALY": 324.6609, "EPHEMERIS_TYPE": 0, "CLASSIFICATION_TYPE": "U", "NORAD_CAT_ID": 30926, "ELEMENT_SET_NO": 999, "REV_AT_EPOCH": 698, "BSTAR": 0.00072484233, "MEAN_MOTION_DOT": 8.829e-05, "MEAN_MOTION_DDOT": 0}, "tle": {"line1": "1 30926U 99025AZQ 25342.10928621  .00008829  00000+0  72484-3 0  9994", "line2": "2 30926  98.8019 282.3299 0166232  36.5822 324.6609 14.89254713  6985"}}, "geometry": {"type": "Point", "coordinates": [-74.07291341317045, -19.11467674768576]}}, {"type": "Feature", "properties": {"norad_id": 30927, "name": "FENGYUN 1C DEB", "group": "fengyun-1c-debris", "lat": -57.975278506393835, "lon": 57.95837073175918, "alt_km": 853.5407274380568, "timestamp": "2025-12-08T13:49:32.072276+00:00", "meta": {"OBJECT_NAME": "FENGYUN 1C DEB", "OBJECT_ID": "1999-025AZR", "EPOCH": "2025-12-02T23:27:28.547136", "MEAN_MOTION": 14.08892452, "ECCENTRICITY": 0.00987852, "INCLINATION": 99.1836, "RA_OF_ASC_NODE": 37.2663, "ARG_OF_PERICENTER": 33.6709, "MEAN_ANOMALY": 327.0684, "EPHEMERIS_TYPE": 0, "CLASSIFICATION_TYPE": "U", "NORAD_CAT_ID": 30927, "ELEMENT_SET_NO": 999, "REV_AT_EPOCH": 95546, "BSTAR": 0.0020438482, "MEAN_MOTION_DOT": 3.651e-05, "MEAN_MOTION_DDOT": 0}, "tle": {"line1": "1 30927U 99025AZR 25336.97741374  .00003651  00000+0  20438-2 0  9990", "line2": "2 30927  99.1836  37.2663 0098785  33.6709 327.0684 14.08892452955463"}}, "geometry": {"type": "Point", "coordinates": [57.95837073175918, -57.975278506393835]}}, {"type": "Feature", "properties": {"norad_id": 30928, "name": "FENGYUN 1C DEB", "group": "fengyun-1c-debris", "lat": 15.714056075038753, "lon": -104.99575606093829, "alt_km": 1345.4818397738645, "timestamp": "2025-12-08T13:49:32.072297+00:00", "meta": {"OBJECT_NAME": "FENGYUN 1C DEB", "OBJECT_ID": "1999-025AZS", "EPOCH": "2025-12-08T05:53:27.603168", "MEAN_MOTION": 13.22232123, "ECCENTRICITY": 0.04506095, "INCLINATION": 98.8831, "RA_OF_ASC_NODE": 72.2004, "ARG_OF_PERICENTER": 42.8637, "MEAN_ANOMALY": 343.7642, "EPHEMERIS_TYPE": 0, "CLASSIFICATION_TYPE": "U", "NORAD_CAT_ID": 30928, "ELEMENT_SET_NO": 999, "REV_AT_EPOCH": 90289, "BSTAR": 0.0013424906, "MEAN_MOTION_DOT": 9.22e-06, "MEAN_MOTION_DDOT": 0}, "tle": {"line1": "1 30928U 99025AZS 25342.24545837  .00000922  00000+0  13425-2 0  9990", "line2": "2 30928  98.8831  72.2004 0450609  42.8637 343.7642 13.22232123902898"}}, "geometry": {"type": "Point", "coordinates": [-104.99575606093829, 15.714056075038753]}}]}